IRIDIUM 26              
1 24903U 97043A   26011.07743323  .00000406  00000+0  12946-3 0  9994
2 24903  86.3945  23.2265 0002385  92.3290 267.8180 14.37355405486601
IRIDIUM 22              
1 24907U 97043E   26011.31976876  .00000379  00000+0  12334-3 0  9996
2 24907  86.3947  26.8433 0002279  88.0803 272.0655 14.36146102486647
DUMMY MASS 1            
1 24925U 97048A   26011.34391993  .00000416  00000+0  43066-4 0  9994
2 24925  86.3321  39.0006 0008630 118.3522 241.8575 14.87211914536064
DUMMY MASS 2            
1 24926U 97048B   26011.34085868  .00000417  00000+0  43424-4 0  9995
2 24926  86.3320  40.6482 0009083 128.5894 231.6146 14.86962331535838
IRIDIUM 29              
1 24944U 97051A   26011.19707954  .00000342  00000+0  10944-3 0  9996
2 24944  86.3926  56.5701 0002085  88.9760 271.1676 14.36689125483130
IRIDIUM 33              
1 24946U 97051C   26011.20152988  .00000314  00000+0  10337-3 0  9996
2 24946  86.3842  55.8500 0009858 113.4468 246.7766 14.35060936482579
IRIDIUM 28              
1 24948U 97051E   26011.17886640  .00000364  00000+0  11485-3 0  9993
2 24948  86.3932  53.9748 0002700  97.9690 262.1814 14.37590048483724
IRIDIUM 36              
1 24967U 97056C   26011.17939551  .00000395  00000+0  12445-3 0  9990
2 24967  86.3948  85.6052 0002425  92.8912 267.2563 14.37815439482109
